GLOBALSTAR M057         
1 25943U 99058A   25138.49095212 -.00000056  00000+0  33117-3 0  9994
2 25943  51.9989  72.4794 0002747 326.7015  33.3662 12.24819545163298
GLOBALSTAR M059         
1 25944U 99058B   25138.79055060 -.00000128  00000+0 -51528-3 0  9992
2 25944  52.0023 286.7004 0000667 169.5659 337.8389 11.99978782159260
GLOBALSTAR M056         
1 25945U 99058C   25138.55898896 -.00000015  00000+0  84099-3 0  9992
2 25945  51.9970 290.0465 0001845 120.6117 315.0326 12.04778856159058
GLOBALSTAR M031         
1 25946U 99058D   25138.58758022 -.00000142  00000+0 -52201-3 0  9994
2 25946  51.9939 184.0731 0001456 128.7636 352.4402 12.16036038160947
GLOBALSTAR M039         
1 25961U 99062A   25138.86827863 -.00000073  00000+0  17053-3 0  9995
2 25961  51.9868 358.0168 0001900 291.1152  68.9511 12.62325950176542
GLOBALSTAR M034         
1 25962U 99062B   25138.30925644 -.00000066  00000+0  23453-3 0  9994
2 25962  51.9863  89.0497 0014480 345.1522 170.2775 11.79448137134860
GLOBALSTAR M029         
1 25963U 99062C   25138.54975005 -.00000060  00000+0  32337-3 0  9992
2 25963  51.9776 175.4147 0002315  62.4530  93.1472 11.99897023165560
GLOBALSTAR M061         
1 25964U 99062D   25138.56850895 -.00000053  00000+0  45049-3 0  9990
2 25964  51.9798 272.0211 0005467 263.8377 178.7125 11.76775375117694
